[
  {
    "locationId": "next-loc-fuji-1",
    "locationName": "Mt.Fuji Camp & Glamp",
    "addressLine1": "2533-1 Oishi",
    "city": "Yamanashi",
    "state": "Japan",
    "zip": "401-0305",
    "latitude": 35.53679643728625,
    "longitude": 138.74085199321922
  },
  {
    "locationId": "next-loc-fuji-2",
    "locationName": "Fujimibashi Mount Fuji Viewing Platform",
    "addressLine1": "Minamitsuru District",
    "city": "Kawaguchi",
    "state": "Japan",
    "zip": "401-0304",
    "latitude": 35.541875726481244,
    "longitude": 138.76978589528957
  },
  {
    "locationId": "next-loc-kinkaku-1",
    "locationName": "Rokuon-ji Kinkaku (Golden Pavilion)",
    "addressLine1": "1 Kinkakujicho, Kita Ward",
    "city": "Kyoto",
    "state": "Japan",
    "zip": "603-8361",
    "latitude": 35.03962471760949,
    "longitude": 135.72843306957876
  },
  {
    "locationId": "next-loc-kinkaku-2",
    "locationName": "South Pond Remains",
    "addressLine1": "1 Kinkakujicho, Kita Ward",
    "city": "Kyoto",
    "state": "Japan",
    "zip": "603-8361",
    "latitude": 35.038772637050386,
    "longitude": 135.72867446836977
  },
  {
    "locationId": "next-loc-kikugahama-1",
    "locationName": "Kikugahama Beach",
    "addressLine1": "Historical Landmark",
    "city": "Hagi",
    "state": "Japan",
    "zip": "758-0057",
    "latitude": 34.417891070193804,
    "longitude": 131.3878227526694
  },
  {
    "locationId": "next-loc-tokyo-1",
    "locationName": "Tower Records",
    "addressLine1": "1 Chome-22-14 Jinnan",
    "city": "Shibuya City",
    "state": "Tokyo",
    "zip": "150-0041",
    "latitude": 35.661777,
    "longitude": 139.698289
  },
  {
    "locationId": "next-loc-tokyo-2",
    "locationName": "Zojoji Temple",
    "addressLine1": "4 Chome-7-35 Shibakoen",
    "city": "Minato City",
    "state": "Tokyo",
    "zip": "105-0011",
    "latitude": 35.65858,
    "longitude": 139.749478
  },
  {
    "locationId": "next-loc-yokohama-1",
    "locationName": "The Sky Garden, Yokohama Landmark Tower",
    "addressLine1": "2 Chome-2-1 Minatomirai",
    "city": "Yokohama",
    "state": "Kanagawa",
    "zip": "220-8173",
    "latitude": 35.454954,
    "longitude": 139.631385
  },
  {
    "locationId": "next-loc-himeji-1",
    "locationName": "Koko-en Garden",
    "addressLine1": "68 Honmachi",
    "city": "Himeji",
    "state": "Hyogo",
    "zip": "670-0012",
    "latitude": 34.837313,
    "longitude": 134.693915
  },
  {
    "locationId": "next-loc-kyoto-1",
    "locationName": "Nidec Kyoto Tower",
    "addressLine1": "721-1 Higashishiokojicho, Shimogyo Ward",
    "city": "Kyoto",
    "state": "Kyoto",
    "zip": "600-8216",
    "latitude": 34.987574,
    "longitude": 135.759363
  }
]
